     3.04           N: IRNSS NAV DATA   I: IRNSS            RINEX VERSION / TYPE
cnvtToRINEX 3.14.0  REGINA              20220924 000949 UTC PGM / RUN BY / DATE 
----------------------------------------------------------- COMMENT             
IRNA   0.0000D+00  0.0000D+00  0.0000D+00  0.0000D+00       IONOSPHERIC CORR    
IRNB   0.0000D+00  0.0000D+00  0.0000D+00  0.0000D+00       IONOSPHERIC CORR    
IRUT  0.0000000000D+00 0.000000000D+00      0    0          TIME SYSTEM CORR    
    18                                                      LEAP SECONDS        
                                                            END OF HEADER       
I 2 2022 09 23 22 05 36 0.461844727397D-03-0.211457518162D-10 0.000000000000D+00
     0.249000000000D+03-0.690000000000D+02 0.479019953104D-08-0.114065250220D+01
    -0.216439366341D-05 0.207967578899D-02-0.166669487953D-04 0.649340798378D+04
     0.511536000000D+06 0.670552253723D-07-0.163011823130D+01 0.633299350739D-07
     0.512509920438D+00 0.596875000000D+03-0.294872930211D+01-0.445732852277D-08
    -0.860750139413D-10 0.000000000000D+00 0.222800000000D+04 0.000000000000D+00
     0.200000000000D+01 0.000000000000D+00-0.186264514923D-08 0.000000000000D+00
     0.511884000000D+06 0.000000000000D+00 0.000000000000D+00 0.000000000000D+00
I 6 2022 09 23 22 20 48-0.358318444341D-03 0.884483597474D-10 0.000000000000D+00
     0.250000000000D+03-0.525250000000D+03 0.584738642426D-08 0.717635973516D+00
    -0.169351696968D-04 0.182510307059D-02 0.198930501938D-04 0.649347776604D+04
     0.512448000000D+06 0.383704900742D-06 0.267242757974D+01-0.435858964920D-06
     0.407763223146D-01-0.598875000000D+03 0.312706112404D+01-0.481591488790D-08
     0.425017703693D-09 0.000000000000D+00 0.222800000000D+04 0.000000000000D+00
     0.200000000000D+01 0.000000000000D+00-0.186264514923D-08 0.000000000000D+00
     0.512748000000D+06 0.000000000000D+00 0.000000000000D+00 0.000000000000D+00
I 2 2022 09 23 22 20 48 0.461827032268D-03-0.201225702767D-10 0.000000000000D+00
     0.250000000000D+03-0.607500000000D+02 0.480448584041D-08-0.107448476721D+01
    -0.191479921341D-05 0.207935704384D-02-0.167489051819D-04 0.649340615082D+04
     0.512448000000D+06 0.745058059692D-07-0.163012228651D+01 0.596046447754D-07
     0.512509838515D+00 0.599812500000D+03-0.294838891180D+01-0.445732852277D-08
    -0.875036448780D-10 0.000000000000D+00 0.222800000000D+04 0.000000000000D+00
     0.200000000000D+01 0.000000000000D+00-0.186264514923D-08 0.000000000000D+00
     0.512748000000D+06 0.000000000000D+00 0.000000000000D+00 0.000000000000D+00
I 6 2022 09 23 22 36 00-0.358237419277D-03 0.886757334229D-10 0.000000000000D+00
     0.251000000000D+03-0.548500000000D+03 0.573309594932D-08 0.784992790261D+00
    -0.176168978214D-04 0.182389596011D-02 0.198185443878D-04 0.649347324944D+04
     0.513360000000D+06 0.488013029099D-06 0.267241881539D+01-0.365078449249D-06
     0.407762096699D-01-0.595500000000D+03 0.312621518727D+01-0.466162274673D-08
     0.440732643998D-09 0.000000000000D+00 0.222800000000D+04 0.000000000000D+00
     0.200000000000D+01 0.000000000000D+00-0.186264514923D-08 0.000000000000D+00
     0.513660000000D+06 0.000000000000D+00 0.000000000000D+00 0.000000000000D+00
I 2 2022 09 23 22 36 00 0.461806077510D-03-0.208046913031D-10 0.000000000000D+00
     0.251000000000D+03-0.524375000000D+02 0.482162941165D-08-0.100830386596D+01
    -0.166893005371D-05 0.207899115048D-02-0.167898833752D-04 0.649340427780D+04
     0.513360000000D+06 0.819563865662D-07-0.163012631392D+01 0.596046447754D-07
     0.512509739036D+00 0.601500000000D+03-0.294806164971D+01-0.446018578464D-08
    -0.900037490174D-10 0.000000000000D+00 0.222800000000D+04 0.000000000000D+00
     0.200000000000D+01 0.000000000000D+00-0.186264514923D-08 0.000000000000D+00
     0.513660000000D+06 0.000000000000D+00 0.000000000000D+00 0.000000000000D+00
I 6 2022 09 23 22 50 24-0.358160585165D-03 0.885620465851D-10 0.000000000000D+00
     0.252000000000D+03-0.565937500000D+03 0.544022660727D-08 0.848706178808D+00
    -0.181533396244D-04 0.182298384607D-02 0.196769833565D-04 0.649346951866D+04
     0.514224000000D+06 0.547617673874D-06 0.267240972336D+01-0.268220901489D-06
     0.407763354809D-01-0.589875000000D+03 0.312551318555D+01-0.434160941689D-08
     0.447875798682D-09 0.000000000000D+00 0.222800000000D+04 0.000000000000D+00
     0.200000000000D+01 0.000000000000D+00-0.186264514923D-08 0.000000000000D+00
     0.514572000000D+06 0.000000000000D+00 0.000000000000D+00 0.000000000000D+00
I 2 2022 09 23 22 50 24 0.461787916720D-03-0.202362571144D-10 0.000000000000D+00
     0.252000000000D+03-0.448750000000D+02 0.483877298289D-08-0.945723109552D+00
    -0.145658850670D-05 0.207842793316D-02-0.167973339558D-04 0.649340143585D+04
     0.514224000000D+06 0.894069671631D-07-0.163013013214D+01 0.670552253723D-07
     0.512509654187D+00 0.601937500000D+03-0.294763458442D+01-0.446590030839D-08
    -0.928610108910D-10 0.000000000000D+00 0.222800000000D+04 0.000000000000D+00
     0.200000000000D+01 0.000000000000D+00-0.186264514923D-08 0.000000000000D+00
     0.514572000000D+06 0.000000000000D+00 0.000000000000D+00 0.000000000000D+00
I 6 2022 09 23 23 05 36-0.358078628778D-03 0.883346729097D-10 0.000000000000D+00
     0.253000000000D+03-0.578312500000D+03 0.490877589879D-08 0.916290597810D+00
    -0.185742974281D-04 0.182136672083D-02 0.194981694221D-04 0.649346231651D+04
     0.515136000000D+06 0.551342964172D-06 0.267242063965D+01-0.149011611938D-06
     0.407771664184D-01-0.583250000000D+03 0.312442092703D+01-0.379158650623D-08
     0.442518432669D-09 0.000000000000D+00 0.222800000000D+04 0.000000000000D+00
     0.200000000000D+01 0.000000000000D+00-0.186264514923D-08 0.000000000000D+00
     0.515484000000D+06 0.000000000000D+00 0.000000000000D+00 0.000000000000D+00
I 2 2022 09 23 23 05 36 0.461769290268D-03-0.200088834390D-10 0.000000000000D+00
     0.253000000000D+03-0.377500000000D+02 0.486020244694D-08-0.879217526802D+00
    -0.125542283058D-05 0.207834038883D-02-0.167749822140D-04 0.649340181351D+04
     0.515136000000D+06 0.100582838058D-06-0.163013413468D+01 0.782310962677D-07
     0.512509534228D+00 0.601375000000D+03-0.294763204626D+01-0.447447209401D-08
    -0.967897459671D-10 0.000000000000D+00 0.222800000000D+04 0.000000000000D+00
     0.200000000000D+01 0.000000000000D+00-0.186264514923D-08 0.000000000000D+00
     0.515484000000D+06 0.000000000000D+00 0.000000000000D+00 0.000000000000D+00
I 6 2022 09 23 23 20 48-0.358007848263D-03 0.884483597474D-10 0.000000000000D+00
     0.254000000000D+03-0.580562500000D+03 0.474162607919D-08 0.982687096611D+00
    -0.187493860722D-04 0.182179769035D-02 0.193938612938D-04 0.649346371269D+04
     0.516048000000D+06 0.651925802231D-06 0.267242509277D+01-0.745058059692D-08
     0.407778393607D-01-0.580812500000D+03 0.312452275490D+01-0.362586531756D-08
     0.463947896721D-09 0.000000000000D+00 0.222800000000D+04 0.000000000000D+00
     0.200000000000D+01 0.000000000000D+00-0.186264514923D-08 0.000000000000D+00
     0.516396000000D+06 0.000000000000D+00 0.000000000000D+00 0.000000000000D+00
I 2 2022 09 23 23 20 48 0.461750198156D-03-0.214868123294D-10 0.000000000000D+00
     0.254000000000D+03-0.317500000000D+02 0.488163191099D-08-0.813160382571D+00
    -0.109523534775D-05 0.207751849666D-02-0.167302787304D-04 0.649339823151D+04
     0.516048000000D+06 0.108033418655D-06-0.163013786951D+01 0.931322574615D-07
     0.512509404028D+00 0.599875000000D+03-0.294718116321D+01-0.448590114150D-08
    -0.101075638777D-09 0.000000000000D+00 0.222800000000D+04 0.000000000000D+00
     0.200000000000D+01 0.000000000000D+00-0.186264514923D-08 0.000000000000D+00
     0.516396000000D+06 0.000000000000D+00 0.000000000000D+00 0.000000000000D+00
I 6 2022 09 23 23 36 00-0.357926823199D-03 0.884483597474D-10 0.000000000000D+00
     0.255000000000D+03-0.586750000000D+03 0.389159067180D-08 0.104958093636D+01
    -0.189989805222D-04 0.182155205403D-02 0.192075967789D-04 0.649346196938D+04
     0.516960000000D+06 0.525265932083D-06 0.267243399902D+01 0.745058059692D-07
     0.407784216021D-01-0.574812500000D+03 0.312412277408D+01-0.277011538642D-08
     0.426089176896D-09 0.000000000000D+00 0.222800000000D+04 0.000000000000D+00
     0.200000000000D+01 0.000000000000D+00-0.186264514923D-08 0.000000000000D+00
     0.517260000000D+06 0.000000000000D+00 0.000000000000D+00 0.000000000000D+00
I 2 2022 09 23 23 36 00 0.461732968688D-03-0.180762071977D-10 0.000000000000D+00
     0.255000000000D+03-0.272500000000D+02 0.490449000598D-08-0.746616376277D+00
    -0.979751348495D-06 0.207743758801D-02-0.166781246662D-04 0.649339856911D+04
     0.516960000000D+06 0.111758708954D-06-0.163014192033D+01 0.115483999252D-06
     0.512509279680D+00 0.597937500000D+03-0.294721696520D+01-0.450018745087D-08
    -0.105718689322D-09 0.000000000000D+00 0.222800000000D+04 0.000000000000D+00
     0.200000000000D+01 0.000000000000D+00-0.186264514923D-08 0.000000000000D+00
     0.517260000000D+06 0.000000000000D+00 0.000000000000D+00 0.000000000000D+00
I 9 2022 09 23 23 36 00 0.307681504637D-03 0.386535248253D-10 0.000000000000D+00
     0.255000000000D+03-0.364875000000D+03 0.393302096897D-08 0.247424859839D+01
    -0.121667981148D-04 0.202947284561D-02-0.206790864468D-04 0.649348789978D+04
     0.516960000000D+06 0.171363353729D-06 0.172742922906D+01-0.111758708954D-07
     0.510751279321D+00 0.712625000000D+03 0.304180381493D+01-0.373015537594D-08
    -0.148577617426D-09 0.000000000000D+00 0.222800000000D+04 0.000000000000D+00
     0.200000000000D+01 0.000000000000D+00-0.186264514923D-08 0.000000000000D+00
     0.517932000000D+06 0.000000000000D+00 0.000000000000D+00 0.000000000000D+00
